{
  "norad_id": 57350,
  "name": "STARLINK-6362",
  "history": [
    {
      "epoch": "2026-03-22T22:29:17.369376",
      "apogee_km": 559.1587726396501,
      "perigee_km": 555.8203781438506,
      "latitude_deg": -28.81926434767322,
      "longitude_deg": 148.95263264002278,
      "semi_major_axis_km": 6935.6265753917505,
      "eccentricity": 0.00024067,
      "inclination_deg": 43.0033,
      "raan_deg": 164.4508,
      "arg_perigee_deg": 259.4225,
      "mean_anomaly_deg": 100.6347,
      "mean_motion_rev_day": 15.03052703
    }
  ]
}