{"fetched_at":"2026-03-29T02:12:04Z","count":15717,"tles":[{"name":"STARLINK-6362","line1":"1 57350U 23099Y   26081.93700659  .00063275  00000+0  45935-2 0  9999","line2":"2 57350  43.0033 164.4508 0002406 259.4225 100.6347 15.03052703148251","category":"Starlink"}]}